start=new Date('2022-09-29T00:00:00.000Z').valueOf();
sats=[{"EPOCH":"2022-09-26T23:27:40.712256","NORAD_CAT_ID":"49458","GP_ID":"213638283","PERIAPSIS":"538.477","RCS_SIZE":"LARGE","ECCENTRICITY":"0.00018220","MEAN_MOTION_DDOT":"0.0000000000000","MEAN_ANOMALY":"312.0029","MEAN_MOTION_DOT":"0.00000739","RA_OF_ASC_NODE":"114.2003","FILE":"3585092","DECAY_DATE":null,"OBJECT_ID":"2021-104BC","INCLINATION":"53.2170","ARG_OF_PERICENTER":"48.1118","SITE":"AFETR","OBJECT_TYPE":"PAYLOAD","OBJECT_NAME":"STARLINK-3156","ELEMENT_SET_NO":"999","COUNTRY_CODE":"US","APOAPSIS":"540.998","EPHEMERIS_TYPE":"0","MEAN_ELEMENT_THEORY":"SGP4","TLE_LINE1":"1 49458U 21104BC  22269.97755454  .00000739  00000-0  64548-4 0  9995","PERIOD":"95.437","TLE_LINE2":"2 49458  53.2170 114.2003 0001822  48.1118 312.0029 15.08842604 48600","BSTAR":"0.00006454800000","TIME_SYSTEM":"UTC","LAUNCH_DATE":"2021-11-13","REF_FRAME":"TEME","REV_AT_EPOCH":"4860","SEMIMAJOR_AXIS":"6917.872","CENTER_NAME":"EARTH","MEAN_MOTION":"15.08842604","CLASSIFICATION_TYPE":"U"},{"OBJECT_TYPE":"PAYLOAD","ARG_OF_PERICENTER":"60.8988","INCLINATION":"53.2164","SITE":"AFETR","DECAY_DATE":null,"OBJECT_ID":"2021-104BD","MEAN_MOTION_DOT":"0.00000736","MEAN_ANOMALY":"299.2161","FILE":"3586073","RA_OF_ASC_NODE":"107.1094","MEAN_MOTION_DDOT":"0.0000000000000","ECCENTRICITY":"0.00015670","NORAD_CAT_ID":"49459","EPOCH":"2022-09-28T13:21:02.071872","PERIAPSIS":"538.660","RCS_SIZE":"LARGE","GP_ID":"213739783","CLASSIFICATION_TYPE":"U","MEAN_MOTION":"15.08840394","SEMIMAJOR_AXIS":"6917.879","CENTER_NAME":"EARTH","REV_AT_EPOCH":"4991","TIME_SYSTEM":"UTC","BSTAR":"0.00006434300000","REF_FRAME":"TEME","LAUNCH_DATE":"2021-11-13","TLE_LINE2":"2 49459  53.2164 107.1094 0001567  60.8988 299.2161 15.08840394 49919","PERIOD":"95.438","TLE_LINE1":"1 49459U 21104BD  22271.55627398  .00000736  00000-0  64343-4 0  9998","MEAN_ELEMENT_THEORY":"SGP4","APOAPSIS":"540.828","EPHEMERIS_TYPE":"0","COUNTRY_CODE":"US","ELEMENT_SET_NO":"999","OBJECT_NAME":"STARLINK-3141"},{"ARG_OF_PERICENTER":"56.8301","INCLINATION":"53.2160","SITE":"AFETR","DECAY_DATE":null,"OBJECT_ID":"2021-104BE","OBJECT_TYPE":"PAYLOAD","NORAD_CAT_ID":"49460","EPOCH":"2022-09-28T19:37:17.254848","RCS_SIZE":"LARGE","PERIAPSIS":"538.617","GP_ID":"213766999","MEAN_MOTION_DOT":"0.00000396","MEAN_ANOMALY":"303.2849","FILE":"3586258","RA_OF_ASC_NODE":"105.9424","MEAN_MOTION_DDOT":"0.0000000000000","ECCENTRICITY":"0.00016570","TIME_SYSTEM":"UTC","BSTAR":"0.00004298000000","REF_FRAME":"TEME","LAUNCH_DATE":"2021-11-13","PERIOD":"95.438","TLE_LINE2":"2 49460  53.2160 105.9424 0001657  56.8301 303.2849 15.08834029 48875","TLE_LINE1":"1 49460U 21104BE  22271.81756082  .00000396  00000-0  42980-4 0  9997","CLASSIFICATION_TYPE":"U","MEAN_MOTION":"15.08834029","CENTER_NAME":"EARTH","SEMIMAJOR_AXIS":"6917.899","REV_AT_EPOCH":"4887","COUNTRY_CODE":"US","ELEMENT_SET_NO":"999","OBJECT_NAME":"STARLINK-3140","MEAN_ELEMENT_THEORY":"SGP4","APOAPSIS":"540.910","EPHEMERIS_TYPE":"0"},{"MEAN_ELEMENT_THEORY":"SGP4","APOAPSIS":"541.037","EPHEMERIS_TYPE":"0","COUNTRY_CODE":"US","ELEMENT_SET_NO":"999","OBJECT_NAME":"STARLINK-3219","MEAN_MOTION":"15.08842398","CLASSIFICATION_TYPE":"U","CENTER_NAME":"EARTH","SEMIMAJOR_AXIS":"6917.873","REV_AT_EPOCH":"4556","BSTAR":"-0.00003623200000","TIME_SYSTEM":"UTC","REF_FRAME":"TEME","LAUNCH_DATE":"2021-12-02","PERIOD":"95.437","TLE_LINE2":"2 49724  53.2191  38.0912 0001878  47.8449 312.2703 15.08842398 45568","TLE_LINE1":"1 49724U 21115A   22271.33550694 -.00000865  00000-0 -36232-4 0  9996","MEAN_MOTION_DOT":"-0.00000865","MEAN_ANOMALY":"312.2703","RA_OF_ASC_NODE":"38.0912","FILE":"3586039","ECCENTRICITY":"0.00018780","MEAN_MOTION_DDOT":"0.0000000000000","NORAD_CAT_ID":"49724","EPOCH":"2022-09-28T08:03:07.799616","PERIAPSIS":"538.439","RCS_SIZE":"LARGE","GP_ID":"213710155","OBJECT_TYPE":"PAYLOAD","ARG_OF_PERICENTER":"47.8449","INCLINATION":"53.2191","SITE":"AFETR","DECAY_DATE":null,"OBJECT_ID":"2021-115A"},{"OBJECT_TYPE":"PAYLOAD","SITE":"AFETR","INCLINATION":"53.2212","ARG_OF_PERICENTER":"29.7749","OBJECT_ID":"2021-115B","DECAY_DATE":null,"FILE":"3586055","RA_OF_ASC_NODE":"37.3616","MEAN_ANOMALY":"330.3330","MEAN_MOTION_DOT":"0.00003564","ECCENTRICITY":"0.00015300","MEAN_MOTION_DDOT":"0.0000000000000","GP_ID":"213738911","RCS_SIZE":"LARGE","PERIAPSIS":"538.745","EPOCH":"2022-09-28T12:01:37.079904","NORAD_CAT_ID":"49725","CENTER_NAME":"EARTH","SEMIMAJOR_AXIS":"6917.939","MEAN_MOTION":"15.08820865","CLASSIFICATION_TYPE":"U","REV_AT_EPOCH":"4670","LAUNCH_DATE":"2021-12-02","REF_FRAME":"TEME","BSTAR":"0.00024201000000","TIME_SYSTEM":"UTC","TLE_LINE1":"1 49725U 21115B   22271.50112361  .00003564  00000-0  24201-3 0  9990","TLE_LINE2":"2 49725  53.2212  37.3616 0001530  29.7749 330.3330 15.08820865 46702","PERIOD":"95.439","MEAN_ELEMENT_THEORY":"SGP4","EPHEMERIS_TYPE":"0","APOAPSIS":"540.862","COUNTRY_CODE":"US","OBJECT_NAME":"STARLINK-3218","ELEMENT_SET_NO":"999"},{"TIME_SYSTEM":"UTC","BSTAR":"0.00018453000000","REF_FRAME":"TEME","LAUNCH_DATE":"2021-12-02","TLE_LINE2":"2 49726  53.2177  46.0490 0001714  56.2597 303.8559 15.08857164 45495","PERIOD":"95.436","TLE_LINE1":"1 49726U 21115C   22271.79361898  .00002651  00000-0  18453-3 0  9991","CLASSIFICATION_TYPE":"U","MEAN_MOTION":"15.08857164","CENTER_NAME":"EARTH","SEMIMAJOR_AXIS":"6917.828","REV_AT_EPOCH":"4549","COUNTRY_CODE":"US","ELEMENT_SET_NO":"999","OBJECT_NAME":"STARLINK-3237","MEAN_ELEMENT_THEORY":"SGP4","APOAPSIS":"540.879","EPHEMERIS_TYPE":"0","ARG_OF_PERICENTER":"56.2597","INCLINATION":"53.2177","SITE":"AFETR","DECAY_DATE":null,"OBJECT_ID":"2021-115C","OBJECT_TYPE":"PAYLOAD","NORAD_CAT_ID":"49726","EPOCH":"2022-09-28T19:02:48.679872","PERIAPSIS":"538.507","RCS_SIZE":"LARGE","GP_ID":"213766790","MEAN_MOTION_DOT":"0.00002651","MEAN_ANOMALY":"303.8559","FILE":"3586258","RA_OF_ASC_NODE":"46.0490","MEAN_MOTION_DDOT":"0.0000000000000","ECCENTRICITY":"0.00017140"},{"GP_ID":"213767515","RCS_SIZE":"LARGE","PERIAPSIS":"538.642","EPOCH":"2022-09-28T19:08:06.900576","NORAD_CAT_ID":"49727","RA_OF_ASC_NODE":"46.0300","FILE":"3586258","MEAN_ANOMALY":"319.1156","MEAN_MOTION_DOT":"0.00002281","MEAN_MOTION_DDOT":"0.0000000000000","ECCENTRICITY":"0.00015530","SITE":"AFETR","INCLINATION":"53.2188","ARG_OF_PERICENTER":"40.9953","OBJECT_ID":"2021-115D","DECAY_DATE":null,"OBJECT_TYPE":"PAYLOAD","COUNTRY_CODE":"US","OBJECT_NAME":"STARLINK-3242","ELEMENT_SET_NO":"999","MEAN_ELEMENT_THEORY":"SGP4","EPHEMERIS_TYPE":"0","APOAPSIS":"540.791","LAUNCH_DATE":"2021-12-02","REF_FRAME":"TEME","BSTAR":"0.00016134000000","TIME_SYSTEM":"UTC","TLE_LINE1":"1 49727U 21115D   22271.79730209  .00002281  00000-0  16134-3 0  9991","TLE_LINE2":"2 49727  53.2188  46.0300 0001553  40.9953 319.1156 15.08849485 45495","PERIOD":"95.437","CENTER_NAME":"EARTH","SEMIMAJOR_AXIS":"6917.851","MEAN_MOTION":"15.08849485","CLASSIFICATION_TYPE":"U","REV_AT_EPOCH":"4549"},{"PERIAPSIS":"538.562","RCS_SIZE":"LARGE","GP_ID":"213765792","NORAD_CAT_ID":"49728","EPOCH":"2022-09-28T20:48:48.320352","FILE":"3586258","RA_OF_ASC_NODE":"45.7043","MEAN_MOTION_DOT":"0.00001065","MEAN_ANOMALY":"306.4378","MEAN_MOTION_DDOT":"0.0000000000000","ECCENTRICITY":"0.00016690","SITE":"AFETR","ARG_OF_PERICENTER":"53.6768","INCLINATION":"53.2177","OBJECT_ID":"2021-115E","DECAY_DATE":null,"OBJECT_TYPE":"PAYLOAD","COUNTRY_CODE":"US","ELEMENT_SET_NO":"999","OBJECT_NAME":"STARLINK-3240","MEAN_ELEMENT_THEORY":"SGP4","EPHEMERIS_TYPE":"0","APOAPSIS":"540.871","REF_FRAME":"TEME","LAUNCH_DATE":"2021-12-02","BSTAR":"0.00008496700000","TIME_SYSTEM":"UTC","PERIOD":"95.437","TLE_LINE2":"2 49728  53.2177  45.7043 0001669  53.6768 306.4378 15.08849504 45506","TLE_LINE1":"1 49728U 21115E   22271.86722593  .00001065  00000-0  84967-4 0  9996","CLASSIFICATION_TYPE":"U","MEAN_MOTION":"15.08849504","CENTER_NAME":"EARTH","SEMIMAJOR_AXIS":"6917.851","REV_AT_EPOCH":"4550"},{"EPHEMERIS_TYPE":"0","APOAPSIS":"540.532","MEAN_ELEMENT_THEORY":"SGP4","ELEMENT_SET_NO":"999","OBJECT_NAME":"STARLINK-3251","COUNTRY_CODE":"US","REV_AT_EPOCH":"4549","CLASSIFICATION_TYPE":"U","MEAN_MOTION":"15.08875634","CENTER_NAME":"EARTH","SEMIMAJOR_AXIS":"6917.771","PERIOD":"95.435","TLE_LINE2":"2 49729  53.2187  45.9993 0001295  56.0849 304.0266 15.08875634 45497","TLE_LINE1":"1 49729U 21115F   22271.80464863 -.00003009  00000-0 -17090-3 0  9998","REF_FRAME":"TEME","LAUNCH_DATE":"2021-12-02","BSTAR":"-0.00017090000000","TIME_SYSTEM":"UTC","MEAN_MOTION_DDOT":"0.0000000000000","ECCENTRICITY":"0.00012950","FILE":"3586258","RA_OF_ASC_NODE":"45.9993","MEAN_MOTION_DOT":"-0.00003009","MEAN_ANOMALY":"304.0266","RCS_SIZE":"LARGE","PERIAPSIS":"538.741","GP_ID":"213766042","NORAD_CAT_ID":"49729","EPOCH":"2022-09-28T19:18:41.641632","OBJECT_TYPE":"PAYLOAD","OBJECT_ID":"2021-115F","DECAY_DATE":null,"SITE":"AFETR","ARG_OF_PERICENTER":"56.0849","INCLINATION":"53.2187"},{"RA_OF_ASC_NODE":"45.9426","FILE":"3586258","MEAN_MOTION_DOT":"0.00007894","MEAN_ANOMALY":"307.9525","ECCENTRICITY":"0.00017750","MEAN_MOTION_DDOT":"0.0000000000000","RCS_SIZE":"LARGE","PERIAPSIS":"538.472","GP_ID":"213767291","NORAD_CAT_ID":"49730","EPOCH":"2022-09-28T19:29:19.871520","OBJECT_TYPE":"PAYLOAD","SITE":"AFETR","ARG_OF_PERICENTER":"52.1627","INCLINATION":"53.2169","OBJECT_ID":"2021-115G","DECAY_DATE":null,"MEAN_ELEMENT_THEORY":"SGP4","EPHEMERIS_TYPE":"0","APOAPSIS":"540.928","COUNTRY_CODE":"US","ELEMENT_SET_NO":"999","OBJECT_NAME":"STARLINK-3249","CLASSIFICATION_TYPE":"U","MEAN_MOTION":"15.08854860","CENTER_NAME":"EARTH","SEMIMAJOR_AXIS":"6917.835","REV_AT_EPOCH":"4549","REF_FRAME":"TEME","LAUNCH_DATE":"2021-12-02","BSTAR":"0.00051329000000","TIME_SYSTEM":"UTC","TLE_LINE2":"2 49730  53.2169  45.9426 0001775  52.1627 307.9525 15.08854860 45492","PERIOD":"95.437","TLE_LINE1":"1 49730U 21115G   22271.81203555  .00007894  00000-0  51329-3 0  9997"}];
